{
    "links": {
        "self": "http://www.neowsapp.com/rest/v1/neo/3780788?api_key=iIulBulltgU6a56xZRHN4H3l9WmuAYTsLGpBGhQ2"
    },
    "id": "3780788",
    "neo_reference_id": "3780788",
    "name": "(2017 QH3)",
    "designation": "2017 QH3",
    "nasa_jpl_url": "http://ssd.jpl.nasa.gov/sbdb.cgi?sstr=3780788",
    "absolute_magnitude_h": 26.4,
    "estimated_diameter": {
        "kilometers": {
            "estimated_diameter_min": 0.0139493823,
            "estimated_diameter_max": 0.0311917671
        },
        "meters": {
            "estimated_diameter_min": 13.9493822934,
            "estimated_diameter_max": 31.1917670523
        },
        "miles": {
            "estimated_diameter_min": 0.0086677416,
            "estimated_diameter_max": 0.0193816595
        },
        "feet": {
            "estimated_diameter_min": 45.7656914036,
            "estimated_diameter_max": 102.3351970157
        }
    },
    "is_potentially_hazardous_asteroid": false,
    "close_approach_data": [
        {
            "close_approach_date": "2017-08-22",
            "close_approach_date_full": "2017-Aug-22 22:59",
            "epoch_date_close_approach": 1503442740000,
            "relative_velocity": {
                "kilometers_per_second": "4.0731407465",
                "kilometers_per_hour": "14663.3066875399",
                "miles_per_hour": "9111.2085359328"
            },
            "miss_distance": {
                "astronomical": "0.0693737595",
                "lunar": "26.9863924455",
                "kilometers": "10378166.655092265",
                "miles": "6448693.729572657"
            },
            "orbiting_body": "Earth"
        }
    ],
    "orbital_data": {
        "orbit_id": "1",
        "orbit_determination_date": "2017-08-21 18:42:05",
        "first_observation_date": "2017-08-15",
        "last_observation_date": "2017-08-20",
        "data_arc_in_days": 5,
        "observations_used": 14,
        "orbit_uncertainty": "8",
        "minimum_orbit_intersection": ".0692836",
        "jupiter_tisserand_invariant": "4.812",
        "epoch_osculation": "2457982.5",
        "eccentricity": ".2091304407517065",
        "semi_major_axis": "1.362900619868983",
        "inclination": "6.642566254332273",
        "ascending_node_longitude": "145.4305499975997",
        "orbital_period": "581.1586556265667",
        "perihelion_distance": "1.077876612535009",
        "perihelion_argument": "192.9903780741706",
        "aphelion_distance": "1.647924627202958",
        "perihelion_time": "2457997.487954714991",
        "mean_anomaly": "350.7156786788635",
        "mean_motion": ".6194521866182513",
        "equinox": "J2000",
        "orbit_class": {
            "orbit_class_type": "AMO",
            "orbit_class_description": "Near-Earth asteroid orbits similar to that of 1221 Amor",
            "orbit_class_range": "1.017 AU < q (perihelion) < 1.3 AU"
        }
    },
    "is_sentry_object": false
}